satname,norad_id,inclination_deg,eccentricity,mean_motion_rev_per_day,perigee_km,apogee_km,l1,l2
STARLINK-1008,44714,53.0514,0.0001316,15.06396459,546.3110333161021,548.1337879129751,1 44714U 19074B   25259.67702532  .00004895  00000+0  34734-3 0  9995,2 44714  53.0514 247.7921 0001316  80.9107 279.2031 15.06396459322524
STARLINK-1010,44716,53.051,0.0010144,15.77526977,330.6376839866098,344.262266842331,1 44716U 19074D   25261.25011574  .00140495  00000+0  81632-3 0  9999,2 44716  53.0510 191.1112 0010144  47.2266 116.2771 15.77526977  5771
STARLINK-1011,44717,53.0501,0.0006681,15.67411957,361.80493747420405,370.81686876234926,1 44717U 19074E   25261.25011574  .00149823  00000+0  13383-2 0  9991,2 44717  53.0501 244.7457 0006681  41.3249  12.3784 15.67411957  5798
STARLINK-1012,44718,53.0497,0.0001925,15.06395629,545.8918222798975,548.5580866323644,1 44718U 19074F   25259.98662818  .00000250  00000+0  35695-4 0  9994,2 44718  53.0497 246.4037 0001925  88.4812 271.6397 15.06395629322567
STARLINK-1015,44721,53.0442,0.000102,15.97943008,279.4474464647892,280.80573223701776,1 44721U 19074J   25261.25011574  .00418216  83767-4  90108-3 0  9998,2 44721  53.0442 179.0740 0001020  32.7278   6.9575 15.97943008  6079
STARLINK-1017,44723,53.0511,0.0003652,15.10815834,531.1864309012972,536.2348444158433,1 44723U 19074L   25260.34810755  .00024248  00000+0  14552-2 0  9997,2 44723  53.0511 243.3558 0003652   3.4773 356.6242 15.10815834322648
STARLINK-1019,44724,53.052,0.0001311,15.0639898,546.3067704873492,548.122597698919,1 44724U 19074M   25260.38104014 -.00000302  00000+0 -14072-5 0  9993,2 44724  53.0520 244.6334 0001311  79.1405 280.9732 15.06398980322621
STARLINK-1020,44725,53.0526,0.0001431,15.06391686,546.2460182430177,548.2280602930568,1 44725U 19074N   25260.05481579  .00001226  00000+0  10118-3 0  9991,2 44725  53.0526 266.0980 0001431 102.1112 258.0037 15.06391686322291
STARLINK-1021,44726,53.0443,0.0002671,15.91932408,295.0927368931016,298.6585286415266,1 44726U 19074P   25261.25011574  .00361825  60812-4  10780-2 0  9999,2 44726  53.0443 184.9077 0002671  23.3519 101.4870 15.91932408  6053
STARLINK-1029,44734,53.0506,0.0006272,15.85916983,309.5468320171867,317.9411275182074,1 44734U 19074X   25261.25011574  .00231259  00000+0  90077-3 0  9991,2 44734  53.0506 108.6550 0006272 109.3288 295.1500 15.85916983  5783
STARLINK-1030,44735,53.032,0.0008557,16.31052153,184.0936538943888,195.3338736915439,1 44735U 19074Y   25261.52969082  .04681983  12071-4  89449-3 0  9992,2 44735  53.0320 198.6927 0008557 218.0304 142.0136 16.31052153323364
STARLINK-1031,44736,53.0534,0.0007744,15.37293373,448.8261193019862,459.40791432322567,1 44736U 19074Z   25260.46943972  .00080428  00000+0  21550-2 0  9990,2 44736  53.0534 244.6976 0007744   5.7075 354.4014 15.37293373322641
STARLINK-1036,44741,53.0537,0.0001216,15.06359225,546.4943926782689,548.178667840828,1 44741U 19074AE  25260.01797001  .00008124  00000+0  56429-3 0  9994,2 44741  53.0537 266.2645 0001216 104.5393 255.5731 15.06359225322295
STARLINK-1039,44744,53.0512,0.0005074,15.09253235,534.9710913303916,541.9900748537148,1 44744U 19074AH  25260.48516153  .00020661  00000+0  12974-2 0  9991,2 44744  53.0512 283.5546 0005074 338.4355  21.6421 15.09253235322098
STARLINK-1042,44747,53.0467,0.0003239,15.40782279,441.58964703169386,446.0088973488182,1 44747U 19074AL  25261.03444312  .00017304  00000+0  42504-3 0  9996,2 44747  53.0467 197.5115 0003239  29.5461 330.5726 15.40782279323375
STARLINK-1043,44748,53.0537,7.86e-05,15.06394808,546.6831370687987,547.771804363595,1 44748U 19074AM  25260.45474164 -.00000742  00000+0 -30922-4 0  9992,2 44748  53.0537 284.3038 0000786  88.1303 271.9776 15.06394808322082
STARLINK-1046,44751,53.0492,0.0001433,15.06392126,546.2432848127528,548.2280966259123,1 44751U 19074AQ  25260.07140915 -.00000215  00000+0  44346-5 0  9998,2 44751  53.0492 286.0234 0001433  90.0847 270.0307 15.06392126322023
STARLINK-1047,44752,53.0681,0.0005063,15.27914,478.5758498210844,485.52247432880176,1 44752U 19074AR  25260.29907487  .00007514  00000+0  28455-3 0  9997,2 44752  53.0681 233.2367 0005063  48.8662 311.2772 15.27914000322796
STARLINK-1048,44753,53.0547,0.0001398,15.06392777,546.2655286582021,548.2018623046588,1 44753U 19074AS  25259.96451584 -.00000064  00000+0  14598-4 0  9990,2 44753  53.0547 246.5027 0001398  82.9177 277.1971 15.06392777322569
STARLINK-1053,44758,53.0406,0.000332,15.54944804,400.0619726488576,404.5641915033566,1 44758U 19074AX  25261.03810547  .00040776  00000+0  60252-3 0  9994,2 44758  53.0406 215.8688 0003320  69.9984 290.1383 15.54944804323108
STARLINK-1054,44759,53.045,0.0010875,15.6470253,366.75136268426377,381.4374660104695,1 44759U 19074AY  25261.25011574  .00185496  00000+0  18347-2 0  9998,2 44759  53.0450 244.7416 0010875   9.4481  50.9089 15.64702530  5620
STARLINK-1056,44761,53.0429,0.0010768,15.76401891,333.4101100268317,347.8796787145493,1 44761U 19074BA  25261.25011574  .00161602  00000+0  98355-3 0  9992,2 44761  53.0429 234.4147 0010768  32.2770 147.3484 15.76401891  6048
STARLINK-1057,44762,53.0422,0.0003052,15.94406265,287.93417324396887,292.00438531684085,1 44762U 19074BB  25261.25011574  .00430897  84753-4  11255-2 0  9993,2 44762  53.0422 205.6276 0003052  43.0775 140.5509 15.94406265  5804
STARLINK-1060,44765,53.0535,0.0001501,15.30051296,474.63035392310485,476.68786351494145,1 44765U 19074BE  25261.25011574  .01774808  00000+0  54993-1 0  9993,2 44765  53.0535 259.3393 0001501  79.0859 324.4031 15.30051296  5844
STARLINK-1063,44768,53.0533,0.0001495,15.06386897,546.2163714239969,548.2870626503909,1 44768U 19074BH  25261.25459571  .00001486  00000+0  11864-3 0  9995,2 44768  53.0533 280.7116 0001495  90.8339 269.2821 15.06386897322219
STARLINK-1067,44771,53.0531,0.0001326,15.06386757,546.3338395225073,548.170452724059,1 44771U 19074BL  25260.44737595 -.00000717  00000+0 -29291-4 0  9996,2 44771  53.0531 284.3370 0001326  76.3304 283.7832 15.06386757322080
STARLINK-1068,44772,53.0577,0.0001511,15.06412841,546.1257881818028,548.2186166227693,1 44772U 19074BM  25261.03526126  .00000628  00000+0  61029-4 0  9993,2 44772  53.0577 261.6967 0001511  80.8256 279.2904 15.06412841322447
STARLINK-1112,44925,53.0527,0.0004098,15.45395673,427.4256504637542,433.0057763476607,1 44925U 20001M   25260.61164026  .00041519  00000+0  85909-3 0  9991,2 44925  53.0527  14.8934 0004098 146.9058 213.2206 15.45395673314160
STARLINK-1114,44927,53.0558,0.0001232,15.06395626,546.3717590568222,548.0781682446659,1 44927U 20001P   25260.67590211  .00000102  00000+0  25745-4 0  9994,2 44927  53.0558  43.3099 0001232  81.7168 278.3961 15.06395626313771
STARLINK-1123,44930,53.0558,0.0001285,15.06387144,546.3610476540362,548.1408723597579,1 44930U 20001S   25260.69065253  .00000115  00000+0  26607-4 0  9995,2 44930  53.0558  43.2410 0001285  88.2797 271.8339 15.06387144313772
STARLINK-1144,44933,53.049,0.0011203,15.49572489,410.3620815210825,425.5894517860461,1 44933U 20001V   25261.00003472  .00090343  00000+0  15952-2 0  9990,2 44933  53.0490 351.6367 0011203 285.8499  31.0876 15.49572489  5924
STARLINK-1091,44940,53.044,0.0004868,15.74582068,342.547495889512,349.0939411242507,1 44940U 20001AC  25261.25011574  .00105900  00000+0  70577-3 0  9998,2 44940  53.0440 336.5796 0004868 289.3527 297.7084 15.74582068  5749
STARLINK-1094,44941,53.0567,0.000129,15.06398871,546.3216477524893,548.108388573175,1 44941U 20001AD  25261.30066522  .00002235  00000+0  16888-3 0  9990,2 44941  53.0567  20.5027 0001290 120.6731 239.4385 15.06398871314143
STARLINK-1096,44942,52.9933,0.0002736,15.75106643,342.48846713596595,346.16699983813123,1 44942U 20001AE  25260.97695030  .00085806  00000+0  56131-3 0  9995,2 44942  52.9933 164.6212 0002736 126.3191 233.8080 15.75106643317125
STARLINK-1122,44949,53.0568,0.0001135,15.06388079,546.4620631190774,548.0341255354897,1 44949U 20001AM  25260.59297355  .00000116  00000+0  26663-4 0  9997,2 44949  53.0568  23.6772 0001135  98.8066 261.3051 15.06388079314039
STARLINK-1066,44954,53.0376,0.0001503,16.13927061,235.09806161148845,237.08629890307384,1 44954U 20001AS  25261.19223135  .00980617  61730-3  78401-3 0  9995,2 44954  53.0376 300.7320 0001503 356.1294   3.9729 16.13927061315191
STARLINK-1080,44961,53.0553,8.74e-05,15.06382546,546.659772311571,547.8703325903398,1 44961U 20001AZ  25260.52478791 -.00000080  00000+0  13490-4 0  9994,2 44961  53.0553   3.9863 0000874  82.6607 277.4481 15.06382546314319
STARLINK-1090,44968,53.0573,0.0001236,15.06402161,546.3489625292959,548.0609070555774,1 44968U 20001BG  25260.59481358 -.00001402  00000+0 -75243-4 0  9995,2 44968  53.0573   3.6742 0001236  86.4605 273.6525 15.06402161314328
STARLINK-1107,44972,53.0134,0.0007845,15.54503257,398.2767141584518,408.9172547800845,1 44972U 20001BL  25259.40787349  .00079020  00000+0  11731-2 0  9996,2 44972  53.0134 301.1564 0007845  32.1729 327.9758 15.54503257315098
STARLINK-1132,45044,53.0551,0.0001496,15.06377958,546.2430720666971,548.3151565681019,1 45044U 20006A   25261.15138699  .00001530  00000+0  12165-3 0  9999,2 45044  53.0551 321.1744 0001496  91.4937 268.6223 15.06377958310737
STARLINK-1131,45047,53.0557,0.0001114,15.06386808,546.4805014798785,548.023478146808,1 45047U 20006D   25261.19384708 -.00002048  00000+0 -11866-3 0  9994,2 45047  53.0557 341.5238 0001114  83.9617 276.1499 15.06386808310450
STARLINK-1134,45048,53.047,0.0007006,15.23034523,491.87722281322476,501.5102356310117,1 45048U 20006E   25259.46645548  .00035544  00000+0  14967-2 0  9993,2 45048  53.0470 333.0876 0007006 355.1363   4.9564 15.23034523310427
STARLINK-1156,45054,53.0562,0.0001192,15.06387769,546.4235384288322,548.074550461828,1 45054U 20006L   25261.23063476  .00000954  00000+0  82944-4 0  9991,2 45054  53.0562 340.8199 0001192  96.1503 263.9622 15.06387769310468
